NORAD_CAT_ID,OBJECT_NAME,OBJECT_TYPE,EPOCH,MEAN_MOTION,ECCENTRICITY,INCLINATION,RA_OF_ASC_NODE,ARG_OF_PERICENTER,MEAN_ANOMALY,BSTAR,MEAN_MOTION_DOT,MEAN_MOTION_DDOT,TLE_LINE0,TLE_LINE1,TLE_LINE2,SEMIMAJOR_AXIS,PERIOD,APOGEE,PERIGEE,DECAYED
52617.0,STARLINK-3996,PAYLOAD,2023-06-18 10:07:17,15.08836957,9.35e-05,53.2166,57.0507,108.4046,251.7048,-4.1828e-05,-9.53e-06,0.0,0 STARLINK-3996,1 52617U 22052V   23169.42173091 -.00000953  00000-0 -41828-4 0  9996,2 52617  53.2166  57.0507 0000935 108.4046 251.7048 15.08836957 60735,6917.89,95.438,540.402,539.108,0.0
52617.0,STARLINK-3996,PAYLOAD,2023-06-18 16:28:50,15.08835594,7.67e-05,53.2165,55.8622,100.2449,259.8629,6.4585e-05,7.4e-06,0.0,0 STARLINK-3996,1 52617U 22052V   23169.68669275  .00000740  00000-0  64585-4 0  9995,2 52617  53.2165  55.8622 0000767 100.2449 259.8629 15.08835594 61155,6917.894,95.438,540.289,539.228,0.0
52617.0,STARLINK-3996,PAYLOAD,2023-06-18 19:39:36,15.08838299,9.23e-05,53.2165,55.2682,88.2218,271.888,0.00010983,1.461e-05,0.0,0 STARLINK-3996,1 52617U 22052V   23169.81917272  .00001461  00000-0  10983-3 0  9996,2 52617  53.2165  55.2682 0000923  88.2218 271.8880 15.08838299 60795,6917.886,95.438,540.389,539.112,0.0
52617.0,STARLINK-3996,PAYLOAD,2023-06-19 02:01:08,15.08848895,9.69e-05,53.2166,54.0774,108.0313,252.0784,0.00016756,2.381e-05,0.0,0 STARLINK-3996,1 52617U 22052V   23170.08412724  .00002381  00000-0  16756-3 0  9995,2 52617  53.2166  54.0774 0000969 108.0313 252.0784 15.08848895 61217,6917.853,95.437,540.389,539.048,0.0
52617.0,STARLINK-3996,PAYLOAD,2023-06-20 01:51:56,15.08839569,9.72e-05,53.2166,49.6158,115.1359,244.9734,0.00021329,3.108e-05,0.0,0 STARLINK-3996,1 52617U 22052V   23171.07773451  .00003108  00000-0  21329-3 0  9992,2 52617  53.2166  49.6158 0000972 115.1359 244.9734 15.08839569 61365,6917.882,95.438,540.419,539.074,0.0
52617.0,STARLINK-3996,PAYLOAD,2023-06-20 20:56:33,15.08841412,0.000104,53.2167,46.0471,108.5928,251.5177,6.476e-05,7.43e-06,0.0,0 STARLINK-3996,1 52617U 22052V   23171.87261447  .00000743  00000-0  64760-4 0  9996,2 52617  53.2167  46.0471 0001040 108.5928 251.5177 15.08841412 61107,6917.876,95.437,540.461,539.022,0.0
52617.0,STARLINK-3996,PAYLOAD,2023-06-21 01:42:43,15.08845893,9.25e-05,53.2167,45.1566,87.3879,272.7219,0.00010762,1.426e-05,0.0,0 STARLINK-3996,1 52617U 22052V   23172.07133242  .00001426  00000-0  10762-3 0  9991,2 52617  53.2167  45.1566 0000925  87.3879 272.7219 15.08845893 61134,6917.862,95.437,540.367,539.087,0.0
52617.0,STARLINK-3996,PAYLOAD,2023-06-21 19:11:57,15.0883851,9.07e-05,53.2165,41.8856,84.0662,276.0434,-1.2844e-05,-4.92e-06,0.0,0 STARLINK-3996,1 52617U 22052V   23172.79997635 -.00000492  00000-0 -12844-4 0  9992,2 52617  53.2165  41.8856 0000907  84.0662 276.0434 15.08838510 61247,6917.885,95.438,540.377,539.122,0.0
52617.0,STARLINK-3996,PAYLOAD,2023-06-22 01:33:30,15.08852033,9.64e-05,53.217,40.6958,110.7901,249.3195,-6.2041e-05,-1.275e-05,0.0,0 STARLINK-3996,1 52617U 22052V   23173.06493101 -.00001275  00000-0 -62041-4 0  9996,2 52617  53.2170  40.6958 0000964 110.7901 249.3195 15.08852033 61668,6917.844,95.437,540.375,539.042,0.0
52617.0,STARLINK-3996,PAYLOAD,2023-06-22 07:55:06,15.08795518,0.0001626,53.2176,39.5032,88.0867,272.0311,-0.00025956,-4.411e-05,0.0,0 STARLINK-3996,1 52617U 22052V   23173.32994013 -.00004411  00000-0 -25956-3 0  9991,2 52617  53.2176  39.5032 0001626  88.0867 272.0311 15.08795518 61700,6918.016,95.44,541.006,538.756,0.0
52617.0,STARLINK-3996,PAYLOAD,2023-06-22 19:02:47,15.08825895,0.000102,53.2169,37.425,84.3842,275.7266,-2.0058e-05,-6.07e-06,0.0,0 STARLINK-3996,1 52617U 22052V   23173.79359965 -.00000607  00000-0 -20058-4 0  9995,2 52617  53.2169  37.4250 0001020  84.3842 275.7266 15.08825895 61779,6917.924,95.438,540.494,539.083,0.0
52617.0,STARLINK-3996,PAYLOAD,2023-06-22 23:48:55,15.08844032,0.0001066,53.2171,36.5331,90.9293,269.1821,0.00012828,1.755e-05,0.0,0 STARLINK-3996,1 52617U 22052V   23173.99230497  .00001755  00000-0  12828-3 0  9993,2 52617  53.2171  36.5331 0001066  90.9293 269.1821 15.08844032 61807,6917.868,95.437,540.471,538.996,0.0
52617.0,STARLINK-3996,PAYLOAD,2023-06-23 07:45:50,15.08851187,0.0001094,53.2179,35.0448,85.7056,274.4061,0.00019219,2.773e-05,0.0,0 STARLINK-3996,1 52617U 22052V   23174.32349846  .00002773  00000-0  19219-3 0  9992,2 52617  53.2179  35.0448 0001094  85.7056 274.4061 15.08851187 61857,6917.846,95.437,540.468,538.954,0.0
52617.0,STARLINK-3996,PAYLOAD,2023-06-24 01:15:04,15.08877138,0.0001338,53.2169,31.7756,89.1587,270.9558,0.0008545,0.00013351,0.0,0 STARLINK-3996,1 52617U 22052V   23175.05213310  .00013351  00000-0  85450-3 0  9993,2 52617  53.2169  31.7756 0001338  89.1587 270.9558 15.08877138 61967,6917.767,95.435,540.557,538.706,0.0
52617.0,STARLINK-3996,PAYLOAD,2023-06-24 07:36:37,15.08855608,0.0001882,53.2161,30.5859,84.4012,275.7194,-7.5169e-05,-1.485e-05,0.0,0 STARLINK-3996,1 52617U 22052V   23175.31709894 -.00001485  00000-0 -75169-4 0  9993,2 52617  53.2161  30.5859 0001882  84.4012 275.7194 15.08855608 62008,6917.833,95.437,541.0,538.396,0.0
52617.0,STARLINK-3996,PAYLOAD,2023-06-25 07:27:24,15.08843852,0.0001422,53.2154,26.1261,79.4982,280.617,0.00060503,9.355e-05,0.0,0 STARLINK-3996,1 52617U 22052V   23176.31069853  .00009355  00000-0  60503-3 0  9995,2 52617  53.2154  26.1261 0001422  79.4982 280.6170 15.08843852 62151,6917.869,95.437,540.717,538.75,0.0
52617.0,STARLINK-3996,PAYLOAD,2023-06-25 13:48:57,15.08838348,0.0001494,53.2162,24.9377,80.4776,279.6384,0.00047504,7.28e-05,0.0,0 STARLINK-3996,1 52617U 22052V   23176.57566086  .00007280  00000-0  47504-3 0  9994,2 52617  53.2162  24.9377 0001494  80.4776 279.6384 15.08838348 62199,6917.885,95.438,540.784,538.717,0.0
52617.0,STARLINK-3996,PAYLOAD,2023-06-26 16:50:30,15.08839697,0.0001454,53.216,19.8808,92.4977,267.6182,0.00019364,2.795e-05,0.0,0 STARLINK-3996,1 52617U 22052V   23177.70174189  .00002795  00000-0  19364-3 0  9998,2 52617  53.2160  19.8808 0001454  92.4977 267.6182 15.08839697 62361,6917.881,95.438,540.752,538.74,0.0
52617.0,STARLINK-3996,PAYLOAD,2023-06-27 19:52:03,15.08846325,0.0001182,53.2173,14.8253,92.6391,267.4736,0.00022736,3.333e-05,0.0,0 STARLINK-3996,1 52617U 22052V   23178.82782110  .00003333  00000-0  22736-3 0  9997,2 52617  53.2173  14.8253 0001182  92.6391 267.4736 15.08846325 62532,6917.861,95.437,540.544,538.908,0.0
52617.0,STARLINK-3996,PAYLOAD,2023-06-28 18:07:27,15.0883893,0.0001181,53.2178,10.6646,94.6547,265.458,0.00010106,1.321e-05,0.0,0 STARLINK-3996,1 52617U 22052V   23179.75518507  .00001321  00000-0  10106-3 0  9990,2 52617  53.2178  10.6646 0001181  94.6547 265.4580 15.08838930 62674,6917.884,95.438,540.566,538.932,0.0
52617.0,STARLINK-3996,PAYLOAD,2023-06-29 19:33:38,15.08839912,0.0001093,53.2178,5.9042,95.5863,264.5254,5.9392e-05,6.58e-06,0.0,0 STARLINK-3996,1 52617U 22052V   23180.81502536  .00000658  00000-0  59392-4 0  9997,2 52617  53.2178   5.9042 0001093  95.5863 264.5254 15.08839912 62831,6917.881,95.438,540.502,538.99,0.0
52617.0,STARLINK-3996,PAYLOAD,2023-06-30 20:59:48,15.08846782,0.000102,53.2182,1.1489,98.5358,261.575,0.00011372,1.523e-05,0.0,0 STARLINK-3996,1 52617U 22052V   23181.87486188  .00001523  00000-0  11372-3 0  9995,2 52617  53.2182   1.1489 0001020  98.5358 261.5750 15.08846782 62999,6917.86,95.437,540.43,539.019,0.0
52617.0,STARLINK-3996,PAYLOAD,2023-07-01 04:56:44,15.08838255,0.0001258,53.2188,359.6613,95.9845,264.129,3.4525e-05,2.62e-06,0.0,0 STARLINK-3996,1 52617U 22052V   23182.20606685  .00000262  00000-0  34525-4 0  9994,2 52617  53.2188 359.6613 0001258  95.9845 264.1290 15.08838255 63041,6917.886,95.438,540.621,538.88,0.0
52617.0,STARLINK-3996,PAYLOAD,2023-07-02 11:09:04,15.08833958,8.26e-05,53.2181,354.0096,91.5651,268.5436,0.00011033,1.468e-05,0.0,0 STARLINK-3996,1 52617U 22052V   23183.46463192  .00001468  00000-0  11033-3 0  9994,2 52617  53.2181 354.0096 0000826  91.5651 268.5436 15.08833958 63231,6917.899,95.438,540.335,539.192,0.0
52617.0,STARLINK-3996,PAYLOAD,2023-07-02 20:41:22,15.08845103,9.55e-05,53.2178,352.2257,92.264,267.8461,6.6715e-05,7.74e-06,0.0,0 STARLINK-3996,1 52617U 22052V   23183.86206633  .00000774  00000-0  66715-4 0  9990,2 52617  53.2178 352.2257 0000955  92.2640 267.8461 15.08845103 63296,6917.865,95.437,540.39,539.069,0.0
52617.0,STARLINK-3996,PAYLOAD,2023-07-03 10:59:50,15.08835219,9.77e-05,53.2178,349.5494,93.8616,266.2487,0.00021721,3.17e-05,0.0,0 STARLINK-3996,1 52617U 22052V   23184.45822891  .00003170  00000-0  21721-3 0  9996,2 52617  53.2178 349.5494 0000977  93.8616 266.2487 15.08835219 63380,6917.895,95.438,540.436,539.084,0.0
52617.0,STARLINK-3996,PAYLOAD,2023-07-03 17:21:22,15.08849444,9.6e-05,53.2178,348.3603,89.3812,270.729,0.00014966,2.095e-05,0.0,0 STARLINK-3996,1 52617U 22052V   23184.72318111  .00002095  00000-0  14966-3 0  9999,2 52617  53.2178 348.3603 0000960  89.3812 270.7290 15.08849444 63421,6917.852,95.437,540.381,539.052,0.0
52617.0,STARLINK-3996,PAYLOAD,2023-07-04 17:12:10,15.0884206,9.23e-05,53.217,343.9,92.1935,267.9163,0.00010854,1.44e-05,0.0,0 STARLINK-3996,1 52617U 22052V   23185.71678691  .00001440  00000-0  10854-3 0  9996,2 52617  53.2170 343.9000 0000923  92.1935 267.9163 15.08842060 63572,6917.874,95.437,540.378,539.101,0.0
52617.0,STARLINK-3996,PAYLOAD,2023-07-05 17:02:57,15.08839189,0.0001027,53.217,339.4395,84.6305,275.4804,1.5645e-05,-3.9e-07,0.0,0 STARLINK-3996,1 52617U 22052V   23186.71038952 -.00000039  00000-0  15645-4 0  9995,2 52617  53.2170 339.4395 0001027  84.6305 275.4804 15.08839189 63723,6917.883,95.438,540.458,539.037,0.0
52617.0,STARLINK-3996,PAYLOAD,2023-07-07 02:26:04,15.08833424,0.0001374,53.2177,333.1926,81.4593,278.6554,1.316e-05,-7.8e-07,0.0,0 STARLINK-3996,1 52617U 22052V   23188.10143524 -.00000078  00000-0  13160-4 0  9995,2 52617  53.2177 333.1926 0001374  81.4593 278.6554 15.08833424 63936,6917.9,95.438,540.716,538.815,0.0
